[{"OBJECT_NAME":"STARLINK-34805","OBJECT_ID":"2025-165R","EPOCH":"2026-03-09T17:29:29.820768","MEAN_MOTION":15.05650108,"ECCENTRICITY":7.037e-5,"INCLINATION":97.6032,"RA_OF_ASC_NODE":147.2278,"ARG_OF_PERICENTER":127.4817,"MEAN_ANOMALY":232.6474,"EPHEMERIS_TYPE":0,"CLASSIFICATION_TYPE":"U","NORAD_CAT_ID":65071,"ELEMENT_SET_NO":999,"REV_AT_EPOCH":3479,"BSTAR":6.8802336e-5,"MEAN_MOTION_DOT":9.32e-6,"MEAN_MOTION_DDOT":0},{"OBJECT_NAME":"COSMOS 1174 DEB","OBJECT_ID":"1980-030Y","EPOCH":"2026-03-09T13:55:47.203680","MEAN_MOTION":14.93245018,"ECCENTRICITY":0.0309747,"INCLINATION":66.0991,"RA_OF_ASC_NODE":136.4359,"ARG_OF_PERICENTER":294.7315,"MEAN_ANOMALY":62.1863,"EPHEMERIS_TYPE":0,"CLASSIFICATION_TYPE":"U","NORAD_CAT_ID":12354,"ELEMENT_SET_NO":999,"REV_AT_EPOCH":38214,"BSTAR":0.00037697,"MEAN_MOTION_DOT":0.00010173,"MEAN_MOTION_DDOT":0}]
